NORAD_CAT_ID,OBJECT_NAME,OBJECT_TYPE,EPOCH,MEAN_MOTION,ECCENTRICITY,INCLINATION,RA_OF_ASC_NODE,ARG_OF_PERICENTER,MEAN_ANOMALY,BSTAR,MEAN_MOTION_DOT,MEAN_MOTION_DDOT,TLE_LINE0,TLE_LINE1,TLE_LINE2,SEMIMAJOR_AXIS,PERIOD,APOGEE,PERIGEE,DECAYED
51132.0,STARLINK-3393,PAYLOAD,2022-03-28 06:00:00,15.48923682,0.0001974,53.2152,298.921,46.5143,12.6641,-9.7373e-05,-5.785e-05,0.0,0 STARLINK-3393,1 51132U 22005AE  22087.25001157 -.00005785  00000-0 -97373-4 0  9991,2 51132  53.2152 298.9210 0001974  46.5143  12.6641 15.48923682 12020,6798.01,92.968,421.217,418.534,0.0
51132.0,STARLINK-3393,PAYLOAD,2022-03-28 14:00:01,15.48960757,0.0001784,53.2153,297.3293,45.4778,73.5153,-0.00063186,-0.00035005,0.0,0 STARLINK-3393,1 51132U 22005AE  22087.58335648 -.00035005  00000-0 -63186-3 0  9994,2 51132  53.2153 297.3293 0001784  45.4778  73.5153 15.48960757  3697,6797.901999999999,92.966,420.98,418.554,0.0
51132.0,STARLINK-3393,PAYLOAD,2022-03-28 22:00:00,15.48936745,0.0002075,53.2149,295.7404,40.6824,138.1108,-0.00063672,-0.00035241,0.0,0 STARLINK-3393,1 51132U 22005AE  22087.91667824 -.00035241  00000-0 -63672-3 0  9997,2 51132  53.2149 295.7404 0002075  40.6824 138.1108 15.48936745 12138,6797.972,92.967,421.24800000000016,418.427,0.0
51132.0,STARLINK-3393,PAYLOAD,2022-03-29 04:00:00,15.48933114,0.0002141,53.2143,294.5466,41.7662,91.8345,-0.0023083,-0.00125138,0.0,0 STARLINK-3393,1 51132U 22005AE  22088.16667824 -.00125138  00000-0 -23083-2 0  9991,2 51132  53.2143 294.5466 0002141  41.7662  91.8345 15.48933114 12161,6797.983,92.967,421.30300000000005,418.392,0.0
51132.0,STARLINK-3393,PAYLOAD,2022-03-29 14:00:01,15.48648346,0.0001623,53.2148,292.5563,38.38800000000001,259.6876,0.00036898,0.00019656,0.0,0 STARLINK-3393,1 51132U 22005AE  22088.58334491  .00019656  00000-0  36898-3 0  9992,2 51132  53.2148 292.5563 0001623  38.3880 259.6876 15.48648346 12231,6798.816,92.984,421.785,419.578,0.0
51132.0,STARLINK-3393,PAYLOAD,2022-03-29 22:00:00,15.48554573,0.0001976,53.2157,290.9652,38.3778,319.1539,0.0061433999999999,0.00347542,0.0,0 STARLINK-3393,1 51132U 22005AE  22088.91667824  .00347542  00000-0  61434-2 0  9999,2 51132  53.2157 290.9652 0001976  38.3778 319.1539 15.48554573  3684,6799.090999999999,92.99,422.299,419.612,0.0
51132.0,STARLINK-3393,PAYLOAD,2022-03-30 02:00:01,15.48734027,0.0001815,53.2157,290.1682,40.7999,166.4068,0.0027939,0.00154887,0.0,0 STARLINK-3393,1 51132U 22005AE  22089.08334491  .00154887  00000-0  27939-2 0  9999,2 51132  53.2157 290.1682 0001815  40.7999 166.4068 15.48734027 12317,6798.565,92.979,421.664,419.196,0.0
51132.0,STARLINK-3393,PAYLOAD,2022-03-30 12:00:00,15.48713906,0.0001758,53.2173,288.1723,30.9863,340.7483,-0.0142389999999999,-0.00718267,0.0,0 STARLINK-3393,1 51132U 22005AE  22089.50001157 -.00718267  00000-0 -14239-1 0  9994,2 51132  53.2173 288.1723 0001758  30.9863 340.7483 15.48713906 12372,6798.624,92.98,421.685,419.294,0.0
51132.0,STARLINK-3393,PAYLOAD,2022-03-30 14:00:01,15.48603689,0.0001884,53.2167,287.7756,36.1668,80.4815,-0.0148479999999999,-0.00744009,0.0,0 STARLINK-3393,1 51132U 22005AE  22089.58335648 -.00744009  00000-0 -14848-1 0  9996,2 51132  53.2167 287.7756 0001884  36.1668  80.4815 15.48603689  3640,6798.946999999999,92.987,422.093,419.531,0.0
51132.0,STARLINK-3393,PAYLOAD,2022-03-30 22:00:00,15.48077256,0.0002024,53.2174,286.1852,33.5232,142.112,-0.014572,-0.00718787,0.0,0 STARLINK-3393,1 51132U 22005AE  22089.91667824 -.00718787  00000-0 -14572-1 0  9995,2 51132  53.2174 286.1852 0002024  33.5232 142.1120 15.48077256  3700,6800.488,93.019,423.73,420.977,0.0
51132.0,STARLINK-3393,PAYLOAD,2022-03-31 14:00:01,15.47059312,0.0001914,53.2176,283.0045,32.16,259.7277,-0.015159,-0.0072136,0.0,0 STARLINK-3393,1 51132U 22005AE  22090.58334491 -.00721360  00000-0 -15159-1 0  9994,2 51132  53.2176 283.0045 0001914  32.1600 259.7277 15.47059312 12545,6803.471,93.08,426.638,424.034,0.0
51132.0,STARLINK-3393,PAYLOAD,2022-03-31 22:00:00,15.46444886,0.0001635,53.2172,281.4205,45.7524,303.405,-0.012628,-0.00589944,0.0,0 STARLINK-3393,1 51132U 22005AE  22090.91667824 -.00589944  00000-0 -12628-1 0  9998,2 51132  53.2172 281.4205 0001635  45.7524 303.4050 15.46444886  3646,6805.273,93.117,428.251,426.025,0.0
51132.0,STARLINK-3393,PAYLOAD,2022-04-01 14:00:01,15.4552815,0.000179,53.2177,278.2455,33.9867,67.6842,-0.015949,-0.00719822,0.0,0 STARLINK-3393,1 51132U 22005AE  22091.58334491 -.00719822  00000-0 -15949-1 0  9992,2 51132  53.2177 278.2455 0001790  33.9867  67.6842 15.45528150 12692,6807.964,93.172,431.047,428.61,0.0
51132.0,STARLINK-3393,PAYLOAD,2022-04-01 22:00:00,15.45015652,0.0001981,53.2175,276.6632,33.6561,123.3833,-0.016133,-0.00715752,0.0,0 STARLINK-3393,1 51132U 22005AE  22091.91667824 -.00715752  00000-0 -16133-1 0  9992,2 51132  53.2175 276.6632 0001981  33.6561 123.3833 15.45015652  3653,6809.469,93.203,432.6830000000001,429.985,0.0
51132.0,STARLINK-3393,PAYLOAD,2022-04-02 14:00:01,15.4399864,0.000181,53.2176,273.4972,37.9002,228.1022,-0.01681,-0.00719912,0.0,0 STARLINK-3393,1 51132U 22005AE  22092.58335648 -.00719912  00000-0 -16810-1 0  9996,2 51132  53.2176 273.4972 0001810  37.9002 228.1022 15.43998640 12855,6812.459,93.264,435.557,433.091,0.0
51132.0,STARLINK-3393,PAYLOAD,2022-04-02 22:00:01,15.43487357,0.00015,53.2174,271.9186,46.5932,272.9388,-0.017059,-0.00718065,0.0,0 STARLINK-3393,1 51132U 22005AE  22092.91668981 -.00718065  00000-0 -17059-1 0  9996,2 51132  53.2174 271.9186 0001500  46.5932 272.9388 15.43487357  3677,6813.9630000000025,93.295,436.85,434.806,0.0
51132.0,STARLINK-3393,PAYLOAD,2022-04-03 14:00:01,15.42469653,0.0001729,53.2175,268.7602,33.9612,30.7289,-0.017759,-0.00721932,0.0,0 STARLINK-3393,1 51132U 22005AE  22093.58334491 -.00721932  00000-0 -17759-1 0  9990,2 51132  53.2175 268.7602 0001729  33.9612  30.7289 15.42469653 13009,6816.96,93.357,440.004,437.647,0.0
51132.0,STARLINK-3393,PAYLOAD,2022-04-03 22:00:00,15.419543300000004,0.0001638,53.2173,267.1851,41.2621,75.1209,-0.017831,-0.00713072,0.0,0 STARLINK-3393,1 51132U 22005AE  22093.91667824 -.00713072  00000-0 -17831-1 0  9993,2 51132  53.2173 267.1851 0001638  41.2621  75.1209 15.41954330  3663,6818.479,93.388,441.461,439.227,0.0
51132.0,STARLINK-3393,PAYLOAD,2022-04-04 14:00:01,15.40937715,0.0001886,53.2174,264.0339,37.9355,179.9925,-0.018589,-0.00718123,0.0,0 STARLINK-3393,1 51132U 22005AE  22094.58334491 -.00718123  00000-0 -18589-1 0  9991,2 51132  53.2174 264.0339 0001886  37.9355 179.9925 15.40937715  3678,6821.478,93.45,444.629,442.056,0.0
51132.0,STARLINK-3393,PAYLOAD,2022-04-04 22:00:00,15.4042522,0.0001631999999999,53.2174,262.4623,45.0508,222.7306,-0.018776,-0.00713395,0.0,0 STARLINK-3393,1 51132U 22005AE  22094.91667824 -.00713395  00000-0 -18776-1 0  9991,2 51132  53.2174 262.4623 0001632  45.0508 222.7306 15.40425220 13219,6822.99,93.481,445.969,443.742,0.0
51132.0,STARLINK-3393,PAYLOAD,2022-04-05 14:00:01,15.39409766,0.0001873,53.2176,259.3185,30.2161,335.4975,-0.019654,-0.00721415,0.0,0 STARLINK-3393,1 51132U 22005AE  22095.58335648 -.00721415  00000-0 -19654-1 0  9999,2 51132  53.2176 259.3185 0001873  30.2161 335.4975 15.39409766  3686,6825.991,93.542,449.134,446.577,0.0
51132.0,STARLINK-3393,PAYLOAD,2022-04-05 22:00:00,15.38896471,0.0001626,53.2173,257.7505,37.0457,16.6192,-0.019812,-0.00715441,0.0,0 STARLINK-3393,1 51132U 22005AE  22095.91667824 -.00715441  00000-0 -19812-1 0  9998,2 51132  53.2173 257.7505 0001626  37.0457  16.6192 15.38896471 13367,6827.5080000000025,93.574,450.483,448.263,0.0
51132.0,STARLINK-3393,PAYLOAD,2022-04-06 14:00:01,15.37877963,0.0001997,53.2176,254.6142,32.9082,114.949,-0.020571,-0.00718256,0.0,0 STARLINK-3393,1 51132U 22005AE  22096.58334491 -.00718256  00000-0 -20571-1 0  9994,2 51132  53.2176 254.6142 0001997  32.9082 114.9490 15.37877963  3672,6830.522,93.636,453.752,451.023,0.0
51132.0,STARLINK-3393,PAYLOAD,2022-04-06 22:00:00,15.37365288,0.0001736,53.2173,253.0494,43.3271,150.707,-0.020756,-0.00713056,0.0,0 STARLINK-3393,1 51132U 22005AE  22096.91667824 -.00713056  00000-0 -20756-1 0  9998,2 51132  53.2173 253.0494 0001736  43.3271 150.7070 15.37365288 13528,6832.041,93.667,455.092,452.72,0.0
51132.0,STARLINK-3393,PAYLOAD,2022-04-07 14:00:01,15.36348053,0.0001824,53.2176,249.9206,36.958,247.5908,-0.0216,-0.00717571,0.0,0 STARLINK-3393,1 51132U 22005AE  22097.58334491 -.00717571  00000-0 -21600-1 0  9998,2 51132  53.2176 249.9206 0001824  36.9580 247.5908 15.36348053  3664,6835.056,93.729,458.168,455.675,0.0
51132.0,STARLINK-3393,PAYLOAD,2022-04-07 20:00:01,15.35962973,0.0001727,53.2176,248.7499,45.7025,182.1579,-0.02173,-0.00713283,0.0,0 STARLINK-3393,1 51132U 22005AE  22097.83334491 -.00713283  00000-0 -21730-1 0  9996,2 51132  53.2176 248.7499 0001727  45.7025 182.1579 15.35962973 13660,6836.199000000001,93.752,459.244,456.883,0.0
51132.0,STARLINK-3393,PAYLOAD,2022-04-07 22:00:00,15.35838011,0.000155,53.2173,248.3593,42.637,286.2495,-0.021933,-0.0071673999999999,0.0,0 STARLINK-3393,1 51132U 22005AE  22097.91667824 -.00716740  00000-0 -21933-1 0  9990,2 51132  53.2173 248.3593 0001550  42.6370 286.2495 15.35838011  3646,6836.57,93.76,459.494,457.375,0.0
51132.0,STARLINK-3393,PAYLOAD,2022-04-08 14:00:03,15.34818954,0.0001882,53.2176,245.238,30.8794,24.974,-0.022751,-0.00719329,0.0,0 STARLINK-3393,1 51132U 22005AE  22098.58336806 -.00719329  00000-0 -22751-1 0  9992,2 51132  53.2176 245.2380 0001882  30.8794  24.9740 15.34818954  3661,6839.595,93.822,462.74800000000016,460.173,0.0
51132.0,STARLINK-3393,PAYLOAD,2022-04-08 22:00:00,15.34307578,0.0001648,53.2171,243.6802,39.5256,58.6998,-0.023013,-0.00716029,0.0,0 STARLINK-3393,1 51132U 22005AE  22098.91667824 -.00716029  00000-0 -23013-1 0  9992,2 51132  53.2171 243.6802 0001648  39.5256  58.6998 15.34307578 13829,6841.115,93.853,464.107,461.853,0.0
